NORAD_CAT_ID,OBJECT_NAME,OBJECT_TYPE,EPOCH,MEAN_MOTION,ECCENTRICITY,INCLINATION,RA_OF_ASC_NODE,ARG_OF_PERICENTER,MEAN_ANOMALY,BSTAR,MEAN_MOTION_DOT,MEAN_MOTION_DDOT,TLE_LINE0,TLE_LINE1,TLE_LINE2,SEMIMAJOR_AXIS,PERIOD,APOGEE,PERIGEE,DECAYED
51981.0,STARLINK-3635,PAYLOAD,2022-07-30 22:00:00,15.08825123,0.0002259,53.2114,194.8539,54.7037,27.50800000000001,0.0019129,0.00030275,0.0,0 STARLINK-3635,1 51981U 22025AB  22211.91667824  .00030275  00000-0  19129-2 0  9997,2 51981  53.2114 194.8539 0002259  54.7037  27.5080 15.08825123  1306,6917.926,95.438,541.354,538.2280000000002,0.0
51981.0,STARLINK-3635,PAYLOAD,2022-07-31 06:00:02,15.08841771,0.000244,53.2116,193.3591,51.2522,42.6152,-0.00071153,-0.00011596,0.0,0 STARLINK-3635,1 51981U 22025AB  22212.25002315 -.00011596  00000-0 -71153-3 0  9996,2 51981  53.2116 193.3591 0002440  51.2522  42.6152 15.08841771 23267,6917.875,95.437,541.428,538.052,0.0
51981.0,STARLINK-3635,PAYLOAD,2022-07-31 14:00:01,15.0885667,0.0002391,53.2116,191.862,51.2531,54.139,-0.0021122,-0.00033764,0.0,0 STARLINK-3635,1 51981U 22025AB  22212.58334491 -.00033764  00000-0 -21122-2 0  9996,2 51981  53.2116 191.8620 0002391  51.2531  54.1390 15.08856670  1305,6917.829000000002,95.437,541.3480000000002,538.04,0.0
51981.0,STARLINK-3635,PAYLOAD,2022-07-31 22:00:00,15.08835791,0.0002307,53.212,190.3644,56.6745,60.3205,0.0014869,0.00023453,0.0,0 STARLINK-3635,1 51981U 22025AB  22212.91667824  .00023453  00000-0  14869-2 0  9994,2 51981  53.2120 190.3644 0002307  56.6745  60.3205 15.08835791  1308,6917.893,95.438,541.354,538.1619999999998,0.0
51981.0,STARLINK-3635,PAYLOAD,2022-08-01 04:00:00,15.0885658,0.0002423,53.212,189.2435,53.3831,342.3109,-0.0016561,-0.00026562,0.0,0 STARLINK-3635,1 51981U 22025AB  22213.16667824 -.00026562  00000-0 -16561-2 0  9999,2 51981  53.2120 189.2435 0002423  53.3831 342.3109 15.08856580 23402,6917.83,95.437,541.371,538.019,0.0
51981.0,STARLINK-3635,PAYLOAD,2022-08-01 14:00:01,15.08863687,0.0002392,53.2119,187.3724,53.4625,86.7323,-0.0021279,-0.00034018,0.0,0 STARLINK-3635,1 51981U 22025AB  22213.58334491 -.00034018  00000-0 -21279-2 0  9993,2 51981  53.2119 187.3724 0002392  53.4625  86.7323 15.08863687  1305,6917.808000000001,95.436,541.328,538.018,0.0
51981.0,STARLINK-3635,PAYLOAD,2022-08-01 22:00:00,15.08857389,0.0002299,53.2122,185.8751,58.4102,93.392,-0.00094841,-0.00015358,0.0,0 STARLINK-3635,1 51981U 22025AB  22213.91667824 -.00015358  00000-0 -94841-3 0  9991,2 51981  53.2122 185.8751 0002299  58.4102  93.3920 15.08857389 23520,6917.8269999999975,95.436,541.283,538.102,0.0
51981.0,STARLINK-3635,PAYLOAD,2022-08-02 14:00:01,15.088417499999998,0.0002308,53.2117,182.8829,54.3597,120.6299,-0.0021519,-0.00034376,0.0,0 STARLINK-3635,1 51981U 22025AB  22214.58334491 -.00034376  00000-0 -21519-2 0  9998,2 51981  53.2117 182.8829 0002308  54.3597 120.6299 15.08841750 23620,6917.875,95.437,541.337,538.143,0.0
51981.0,STARLINK-3635,PAYLOAD,2022-08-03 04:00:00,15.08837116,0.0002395,53.2115,180.265,55.7514,49.5097,-0.001313,-0.00021123,0.0,0 STARLINK-3635,1 51981U 22025AB  22215.16667824 -.00021123  00000-0 -13130-2 0  9998,2 51981  53.2115 180.2650 0002395  55.7514  49.5097 15.08837116 23718,6917.889,95.438,541.411,538.097,0.0
51981.0,STARLINK-3635,PAYLOAD,2022-08-03 14:00:01,15.08848497,0.0002342,53.2112,178.3935,56.7584,152.9813,-0.0019652,-0.00031437,0.0,0 STARLINK-3635,1 51981U 22025AB  22215.58334491 -.00031437  00000-0 -19652-2 0  9999,2 51981  53.2112 178.3935 0002342  56.7584 152.9813 15.08848497  1309,6917.854,95.437,541.34,538.099,0.0
51981.0,STARLINK-3635,PAYLOAD,2022-08-03 20:00:01,15.08821767,0.000231,53.2112,177.2704,60.823,67.615,0.0021912,0.00034741,0.0,0 STARLINK-3635,1 51981U 22025AB  22215.83334491  .00034741  00000-0  21912-2 0  9998,2 51981  53.2112 177.2704 0002310  60.8230  67.6150 15.08821767 23817,6917.936,95.439,541.399,538.203,0.0
51981.0,STARLINK-3635,PAYLOAD,2022-08-03 22:00:01,15.08840646,0.0002342,53.2113,176.8966,61.5848,159.8062,0.00042375,6.462e-05,0.0,0 STARLINK-3635,1 51981U 22025AB  22215.91668981  .00006462  00000-0  42375-3 0  9997,2 51981  53.2113 176.8966 0002342  61.5848 159.8062 15.08840646  1304,6917.878000000002,95.438,541.364,538.123,0.0
51981.0,STARLINK-3635,PAYLOAD,2022-08-04 04:00:00,15.08798361,0.0002313,53.2137,175.7636,50.0407,89.95299999999996,0.0046563,0.00074518,0.0,0 STARLINK-3635,1 51981U 22025AB  22216.16667824  .00074518  00000-0  46563-2 0  9999,2 51981  53.2137 175.7636 0002313  50.0407  89.9530 15.08798361 23868,6918.0080000000025,95.44,541.4730000000002,538.273,0.0
51981.0,STARLINK-3635,PAYLOAD,2022-08-04 14:00:01,15.08874832,0.0002162,53.2166,173.8808,46.5444,197.9355,-0.0039128999999999,-0.00062087,0.0,0 STARLINK-3635,1 51981U 22025AB  22216.58334491 -.00062087  00000-0 -39129-2 0  9996,2 51981  53.2166 173.8808 0002162  46.5444 197.9355 15.08874832  1301,6917.774,95.435,541.135,538.143,0.0
51981.0,STARLINK-3635,PAYLOAD,2022-08-04 20:00:01,15.08822482,0.000222,53.2108,172.78099999999995,50.5485,112.5764,0.0018786999999999,0.00029724,0.0,0 STARLINK-3635,1 51981U 22025AB  22216.83334491  .00029724  00000-0  18787-2 0  9990,2 51981  53.2108 172.7810 0002220  50.5485 112.5764 15.08822482 23960,6917.934,95.439,541.335,538.263,0.0
51981.0,STARLINK-3635,PAYLOAD,2022-08-04 22:00:00,15.08840389,0.0002249,53.2109,172.4072,51.0412,204.9739,0.00013544,1.868e-05,0.0,0 STARLINK-3635,1 51981U 22025AB  22216.91667824  .00001868  00000-0  13544-3 0  9994,2 51981  53.2109 172.4072 0002249  51.0412 204.9739 15.08840389  1303,6917.879,95.438,541.3,538.188,0.0
51981.0,STARLINK-3635,PAYLOAD,2022-08-05 12:00:00,15.08858604,0.0002396999999999,53.2107,169.78900000000004,46.9487,139.3548,-0.0018123,-0.00029031,0.0,0 STARLINK-3635,1 51981U 22025AB  22217.50001157 -.00029031  00000-0 -18123-2 0  9992,2 51981  53.2107 169.7890 0002397  46.9487 139.3548 15.08858604 24063,6917.824000000001,95.436,541.347,538.03,0.0
51981.0,STARLINK-3635,PAYLOAD,2022-08-05 14:00:01,15.08853672,0.0002351,53.2109,169.4143,48.2051,231.0644,-0.001401,-0.00022525,0.0,0 STARLINK-3635,1 51981U 22025AB  22217.58335648 -.00022525  00000-0 -14010-2 0  9997,2 51981  53.2109 169.4143 0002351  48.2051 231.0644 15.08853672  1304,6917.839,95.437,541.33,538.077,0.0
51981.0,STARLINK-3635,PAYLOAD,2022-08-05 22:00:00,15.08855836,0.000234,53.2127,167.908,51.6335,239.1786,0.00020424,2.965e-05,0.0,0 STARLINK-3635,1 51981U 22025AB  22217.91667824  .00002965  00000-0  20424-3 0  9999,2 51981  53.2127 167.9080 0002340  51.6335 239.1786 15.08855836  1308,6917.831999999999,95.437,541.316,538.078,0.0
51981.0,STARLINK-3635,PAYLOAD,2022-08-06 04:00:03,15.08849344,0.0002533,53.2108,166.7963,48.464,161.183,9.123e-05,1.164e-05,0.0,0 STARLINK-3635,1 51981U 22025AB  22218.16670139  .00001164  00000-0  91230-4 0  9994,2 51981  53.2108 166.7963 0002533  48.4640 161.1830 15.08849344 24161,6917.852,95.437,541.469,537.965,0.0
51981.0,STARLINK-3635,PAYLOAD,2022-08-06 14:00:01,15.08868353,0.0002393,53.2112,164.9245,49.2157,264.8205,-0.0034948,-0.00055526,0.0,0 STARLINK-3635,1 51981U 22025AB  22218.58334491 -.00055526  00000-0 -34948-2 0  9992,2 51981  53.2112 164.9245 0002393  49.2157 264.8205 15.08868353  1304,6917.794,95.436,541.314,538.003,0.0
51981.0,STARLINK-3635,PAYLOAD,2022-08-06 22:00:00,15.0885019,0.0002368,53.2114,163.4277,51.9726,273.6662,-0.000341,-5.713e-05,0.0,0 STARLINK-3635,1 51981U 22025AB  22218.91667824 -.00005713  00000-0 -34100-3 0  9992,2 51981  53.2114 163.4277 0002368  51.9726 273.6662 15.08850190  1304,6917.849,95.437,541.352,538.076,0.0
51981.0,STARLINK-3635,PAYLOAD,2022-08-07 14:00:01,15.08855487,0.0002399999999999,53.2115,160.4347,50.7021,298.1423,-0.001114,-0.00017982,0.0,0 STARLINK-3635,1 51981U 22025AB  22219.58334491 -.00017982  00000-0 -11140-2 0  9996,2 51981  53.2115 160.4347 0002400  50.7021 298.1423 15.08855487 24375,6917.833000000001,95.437,541.3580000000002,538.038,0.0
51981.0,STARLINK-3635,PAYLOAD,2022-08-07 22:00:00,15.08861767,0.0002355,53.2118,158.9381,52.5533,307.8998,-0.0022952,-0.00036654,0.0,0 STARLINK-3635,1 51981U 22025AB  22219.91667824 -.00036654  00000-0 -22952-2 0  9992,2 51981  53.2118 158.9381 0002355  52.5533 307.8998 15.08861767  1317,6917.814,95.436,541.308,538.05,0.0
51981.0,STARLINK-3635,PAYLOAD,2022-08-08 12:00:00,15.08868726,0.0002360999999999,53.2117,156.3195,49.8027,240.9598,-0.0016679,-0.00026757,0.0,0 STARLINK-3635,1 51981U 22025AB  22220.50001157 -.00026757  00000-0 -16679-2 0  9992,2 51981  53.2117 156.3195 0002361  49.8027 240.9598 15.08868726 24517,6917.793000000002,95.436,541.2909999999998,538.024,0.0
51981.0,STARLINK-3635,PAYLOAD,2022-08-08 14:00:01,15.08855129,0.0002295,53.2119,155.9448,51.5002,332.2345,-4.225100000000001e-05,-9.61e-06,0.0,0 STARLINK-3635,1 51981U 22025AB  22220.58335648 -.00000961  00000-0 -42251-4 0  9991,2 51981  53.2119 155.9448 0002295  51.5002 332.2345 15.08855129  1304,6917.834,95.437,541.2869999999998,538.112,0.0
51981.0,STARLINK-3635,PAYLOAD,2022-08-08 22:00:00,15.08873109,0.0002230999999999,53.2122,154.4486,52.5882,342.7008,-0.0020819,-0.000333,0.0,0 STARLINK-3635,1 51981U 22025AB  22220.91667824 -.00033300  00000-0 -20819-2 0  9999,2 51981  53.2122 154.4486 0002231  52.5882 342.7008 15.08873109  1301,6917.779,95.435,541.188,538.101,0.0
51981.0,STARLINK-3635,PAYLOAD,2022-08-09 04:00:00,15.08846942,0.0002345,53.2121,153.3275,47.8912,266.1133,-0.00139,-0.00022347,0.0,0 STARLINK-3635,1 51981U 22025AB  22221.16667824 -.00022347  00000-0 -13900-2 0  9999,2 51981  53.2121 153.3275 0002345  47.8912 266.1133 15.08846942 24613,6917.859,95.437,541.346,538.102,0.0
51981.0,STARLINK-3635,PAYLOAD,2022-08-09 14:00:01,15.08830222,0.0002084,53.2121,151.4553,49.6783,8.818999999999997,-0.00086394,-0.00014008,0.0,0 STARLINK-3635,1 51981U 22025AB  22221.58334491 -.00014008  00000-0 -86394-3 0  9999,2 51981  53.2121 151.4553 0002084  49.6783   8.8190 15.08830222  1306,6917.91,95.438,541.217,538.3340000000002,0.0
